STARLINK-2736
1 28640C 21044C   21325.13003132 -.00002322  00000-0 -15556-3 0  3258
2 28640  53.0556 322.6386 0001656  55.3984  61.5522 15.06405679    15
